{
  "type": "FeatureCollection",
  "crs": {
    "type": "name",
    "properties": {
      "name": "urn:ogc:def:crs:OGC:1.3:CRS84"
    }
  },
  "features": [
    {
      "type": "Feature",
      "properties": {
        "id": "cadastral_parcel_1",
        "source": "GeoAI_Drone_Segmentation"
      },
      "geometry": {
        "type": "Polygon",
        "coordinates": [
          [
            [
              76.88303725975236,
              8.573028229379366
            ],
            [
              76.88268131033858,
              8.571924137007846
            ],
            [
              76.8830291561972,
              8.570812704567812
            ],
            [
              76.88619716624358,
              8.570801148889348
            ],
            [
              76.88653754917455,
              8.572158742362724
            ],
            [
              76.88613229852727,
              8.573113597734233
            ],
            [
              76.88303725975236,
              8.573028229379366
            ]
          ]
        ]
      }
    }
  ]
}